{
  "norad_id": 67887,
  "name": "STARLINK-36368",
  "history": [
    {
      "epoch": "2026-03-28T18:57:01.218816Z",
      "apogee_km": 344.99904352474914,
      "perigee_km": 342.61974337932224,
      "latitude_deg": 5.8655080705184336e-05,
      "longitude_deg": -89.27708449012324,
      "height_km": 347.0675146830803,
      "semi_major_axis_km": 6721.946393452035,
      "eccentricity": 0.00017698,
      "inclination_deg": 97.2855,
      "raan_deg": 21.183,
      "arg_perigee_deg": 94.4608,
      "mean_anomaly_deg": 265.686,
      "mean_motion_rev_day": 15.75288835
    }
  ]
}