{"fetched_at":"2026-03-30T06:02:59Z","count":15439,"tles":[{"name":"STARLINK-36368","line1":"1 67887U 26035J   26087.78959744  .00276485  00000+0  17875-2 0  9999","line2":"2 67887  97.2855  21.1830 0001769  94.4608 265.6860 15.75288835  6857","category":"Starlink"}]}